NORAD_CAT_ID,OBJECT_NAME,OBJECT_TYPE,EPOCH,MEAN_MOTION,ECCENTRICITY,INCLINATION,RA_OF_ASC_NODE,ARG_OF_PERICENTER,MEAN_ANOMALY,BSTAR,MEAN_MOTION_DOT,MEAN_MOTION_DDOT,TLE_LINE0,TLE_LINE1,TLE_LINE2,SEMIMAJOR_AXIS,PERIOD,APOGEE,PERIGEE,DECAYED
55410.0,STARLINK-5633,PAYLOAD,2023-11-29 12:14:44,14.98333528,0.0002912,69.9996,19.9936,271.4885,88.594,0.00038709,4.529e-05,0.0,0 STARLINK-5633,1 55410U 23014V   23333.51024011  .00004529  00000-0  38709-3 0  9993,2 55410  69.9996  19.9936 0002912 271.4885  88.5940 14.98333528 47068,6950.182,96.107,574.071,570.023,0.0
55410.0,STARLINK-5633,PAYLOAD,2023-11-30 04:16:05,14.98336033,0.0002531,70.0001,18.3103,271.8554,88.2315,6.4332e-05,6.75e-06,0.0,0 STARLINK-5633,1 55410U 23014V   23334.17784696  .00000675  00000-0  64332-4 0  9998,2 55410  70.0001  18.3103 0002531 271.8554  88.2315 14.98336033 47169,6950.174,96.107,573.798,570.28,0.0
55410.0,STARLINK-5633,PAYLOAD,2023-11-30 12:16:46,14.98331277,0.0002488,70.0005,17.4695,265.7392,94.3483,1.419e-05,7.6e-07,0.0,0 STARLINK-5633,1 55410U 23014V   23334.51165006  .00000076  00000-0  14190-4 0  9996,2 55410  70.0005  17.4695 0002488 265.7392  94.3483 14.98331277 47217,6950.189,96.107,573.783,570.325,0.0
55410.0,STARLINK-5633,PAYLOAD,2023-12-01 12:18:47,14.9833292,0.0002539,70.0006,14.9448,263.0664,97.0206,-0.00015777,-1.975e-05,0.0,0 STARLINK-5633,1 55410U 23014V   23335.51305073 -.00001975  00000-0 -15777-3 0  9999,2 55410  70.0006  14.9448 0002539 263.0664  97.0206 14.98332920 47361,6950.184,96.107,573.814,570.284,0.0
55410.0,STARLINK-5633,PAYLOAD,2023-12-02 12:20:46,14.98349119,0.0002807,70.0,12.4194,263.7395,96.3445,0.00019268,2.208e-05,0.0,0 STARLINK-5633,1 55410U 23014V   23336.51442381  .00002208  00000-0  19268-3 0  9991,2 55410  70.0000  12.4194 0002807 263.7395  96.3445 14.98349119 47514,6950.134,96.106,573.95,570.048,0.0
55410.0,STARLINK-5633,PAYLOAD,2023-12-03 02:46:01,14.98318559,0.0002713,70.0001,10.9044,268.7512,91.3336,-9.0688e-05,-1.175e-05,0.0,0 STARLINK-5633,1 55410U 23014V   23337.11529238 -.00001175  00000-0 -90688-4 0  9995,2 55410  70.0001  10.9044 0002713 268.7512  91.3336 14.98318559 47602,6950.228,96.108,573.979,570.208,0.0
55410.0,STARLINK-5633,PAYLOAD,2023-12-03 10:46:43,14.98301802,0.0002649,70.0003,10.0627,268.7836,91.3019,-0.00025682,-3.154e-05,0.0,0 STARLINK-5633,1 55410U 23014V   23337.44911103 -.00003154  00000-0 -25682-3 0  9997,2 55410  70.0003  10.0627 0002649 268.7836  91.3019 14.98301802 47655,6950.28,96.109,573.986,570.304,0.0
55410.0,STARLINK-5633,PAYLOAD,2023-12-03 12:22:51,14.98302046,0.000275,70.0001,9.8944,270.7584,89.326,-0.00025851,-3.174e-05,0.0,0 STARLINK-5633,1 55410U 23014V   23337.51587187 -.00003174  00000-0 -25851-3 0  9996,2 55410  70.0001   9.8944 0002750 270.7584  89.3260 14.98302046 47664,6950.279,96.109,574.056,570.233,0.0
55410.0,STARLINK-5633,PAYLOAD,2023-12-04 02:48:03,14.98321929,0.0002494,70.0015,8.3802,264.6859,95.4015,-0.00020486,-2.536e-05,0.0,0 STARLINK-5633,1 55410U 23014V   23338.11670352 -.00002536  00000-0 -20486-3 0  9990,2 55410  70.0015   8.3802 0002494 264.6859  95.4015 14.98321929 47755,6950.218,96.108,573.816,570.349,0.0
55410.0,STARLINK-5633,PAYLOAD,2023-12-04 12:24:51,14.98321937,0.0002465,70.0005,7.3689,265.3584,94.7293,-0.0001399,-1.761e-05,0.0,0 STARLINK-5633,1 55410U 23014V   23338.51726421 -.00001761  00000-0 -13990-3 0  9994,2 55410  70.0005   7.3689 0002465 265.3584  94.7293 14.98321937 47813,6950.218,96.108,573.796,570.37,0.0
55410.0,STARLINK-5633,PAYLOAD,2023-12-05 02:50:03,14.98311264,0.0003116,70.0006,5.8537,284.6367,75.4446,0.00029691,3.45e-05,0.0,0 STARLINK-5633,1 55410U 23014V   23339.11810096  .00003450  00000-0  29691-3 0  9993,2 55410  70.0006   5.8537 0003116 284.6367  75.4446 14.98311264 47904,6950.251,96.108,574.282,569.95,0.0
55410.0,STARLINK-5633,PAYLOAD,2023-12-05 10:50:44,14.98317241,0.0002527,70.0008,5.0129,275.0861,85.001,0.00033838,3.945e-05,0.0,0 STARLINK-5633,1 55410U 23014V   23339.45189910  .00003945  00000-0  33838-3 0  9991,2 55410  70.0008   5.0129 0002527 275.0861  85.0010 14.98317241 47953,6950.232,96.108,573.854,570.341,0.0
55410.0,STARLINK-5633,PAYLOAD,2023-12-06 04:28:11,14.98338826,0.0002605,70.0004,3.1607,271.0527,89.0334,0.0002096,2.409e-05,0.0,0 STARLINK-5633,1 55410U 23014V   23340.18624766  .00002409  00000-0  20960-3 0  9992,2 55410  70.0004   3.1607 0002605 271.0527  89.0334 14.98338826 48069,6950.166,96.106,573.841,570.22,0.0
55410.0,STARLINK-5633,PAYLOAD,2023-12-06 10:52:43,14.98340003,0.0002552,70.0007,2.4879,270.3923,89.6943,0.0002069,2.377e-05,0.0,0 STARLINK-5633,1 55410U 23014V   23340.45328517  .00002377  00000-0  20690-3 0  9991,2 55410  70.0007   2.4879 0002552 270.3923  89.6943 14.98340003 48105,6950.162,96.106,573.801,570.253,0.0
55410.0,STARLINK-5633,PAYLOAD,2023-12-07 04:30:13,14.98329986,0.0002653,70.0009,0.6374,270.7235,89.362,-0.00011799,-1.5e-05,0.0,0 STARLINK-5633,1 55410U 23014V   23341.18765468 -.00001500  00000-0 -11799-3 0  9991,2 55410  70.0009   0.6374 0002653 270.7235  89.3620 14.98329986 48217,6950.193,96.107,573.902,570.214,0.0
55410.0,STARLINK-5633,PAYLOAD,2023-12-07 10:54:45,14.98326139,0.00021,70.0014,359.9639,280.4199,79.6723,-0.00013229,-1.671e-05,0.0,0 STARLINK-5633,1 55410U 23014V   23341.45469874 -.00001671  00000-0 -13229-3 0  9992,2 55410  70.0014 359.9639 0002100 280.4199  79.6723 14.98326139 48258,6950.205,96.107,573.529,570.61,0.0
55410.0,STARLINK-5633,PAYLOAD,2023-12-08 04:32:13,14.9833396,0.0002362,70.0018,358.1141,261.6246,98.4645,-9.5501e-05,-1.232e-05,0.0,0 STARLINK-5633,1 55410U 23014V   23342.18904662 -.00001232  00000-0 -95501-4 0  9999,2 55410  70.0018 358.1141 0002362 261.6246  98.4645 14.98333960 48369,6950.181,96.107,573.687,570.404,0.0
55410.0,STARLINK-5633,PAYLOAD,2023-12-08 10:56:45,14.98334674,0.0002537,70.0002,357.4377,265.3126,94.7743,-0.00010932,-1.397e-05,0.0,0 STARLINK-5633,1 55410U 23014V   23342.45608548 -.00001397  00000-0 -10932-3 0  9999,2 55410  70.0002 357.4377 0002537 265.3126  94.7743 14.98334674 48403,6950.178,96.107,573.807,570.28,0.0
55410.0,STARLINK-5633,PAYLOAD,2023-12-09 10:58:46,14.98325944,0.0002678,70.0002,354.9126,276.0106,84.0748,6.5707e-05,6.91e-06,0.0,0 STARLINK-5633,1 55410U 23014V   23343.45748457  .00000691  00000-0  65707-4 0  9999,2 55410  70.0002 354.9126 0002678 276.0106  84.0748 14.98325944 48553,6950.205,96.107,573.932,570.209,0.0
55410.0,STARLINK-5633,PAYLOAD,2023-12-10 11:00:47,14.98329751,0.0002933,69.9993,352.3869,272.9148,87.1675,1.954e-05,1.4e-06,0.0,0 STARLINK-5633,1 55410U 23014V   23344.45888131  .00000140  00000-0  19540-4 0  9997,2 55410  69.9993 352.3869 0002933 272.9148  87.1675 14.98329751 48700,6950.194,96.107,574.097,570.02,0.0
55410.0,STARLINK-5633,PAYLOAD,2023-12-11 09:26:41,14.98278233,0.0003426,69.9995,350.0302,281.7108,78.3666,0.00087438,0.00010342,0.0,0 STARLINK-5633,1 55410U 23014V   23345.39353248  .00010342  00000-0  87438-3 0  9992,2 55410  69.9995 350.0302 0003426 281.7108  78.3666 14.98278233 48846,6950.353,96.11,574.599,569.837,0.0
55410.0,STARLINK-5633,PAYLOAD,2023-12-12 03:04:08,14.98332198,0.0003088,69.9993,348.1785,270.0734,90.0071,-2.4864e-05,-3.9e-06,0.0,0 STARLINK-5633,1 55410U 23014V   23346.12787908 -.00000390  00000-0 -24864-4 0  9997,2 55410  69.9993 348.1785 0003088 270.0734  90.0071 14.98332198 48951,6950.186,96.107,574.197,569.905,0.0
55410.0,STARLINK-5633,PAYLOAD,2023-12-12 09:28:41,14.98330078,0.0002788,69.9997,347.5055,269.382,90.702,3.3407e-06,-5.3e-07,0.0,0 STARLINK-5633,1 55410U 23014V   23346.39491978 -.00000053  00000-0  33407-5 0  9994,2 55410  69.9997 347.5055 0002788 269.3820  90.7020 14.98330078 48991,6950.193,96.107,573.995,570.12,0.0
55410.0,STARLINK-5633,PAYLOAD,2023-12-13 03:06:09,14.98332808,0.000272,69.9997,345.6539,263.7662,96.3187,-9.1165e-05,-1.181e-05,0.0,0 STARLINK-5633,1 55410U 23014V   23347.12928096 -.00001181  00000-0 -91165-4 0  9990,2 55410  69.9997 345.6539 0002720 263.7662  96.3187 14.98332808 49108,6950.184,96.107,573.94,570.159,0.0
55410.0,STARLINK-5633,PAYLOAD,2023-12-13 09:30:42,14.98324526,0.0002467,70.0006,344.9813,254.2079,105.8808,-9.3395e-06,-2.04e-06,0.0,0 STARLINK-5633,1 55410U 23014V   23347.39632386 -.00000204  00000-0 -93395-5 0  9996,2 55410  70.0006 344.9813 0002467 254.2079 105.8808 14.98324526 49142,6950.21,96.107,573.789,570.36,0.0
55410.0,STARLINK-5633,PAYLOAD,2023-12-14 04:44:18,14.983297,0.0002726,69.9998,342.9603,261.1392,98.9459,4.0455e-06,-4.5e-07,0.0,0 STARLINK-5633,1 55410U 23014V   23348.19744020 -.00000045  00000-0  40455-5 0  9995,2 55410  69.9998 342.9603 0002726 261.1392  98.9459 14.98329700 49263,6950.194,96.107,573.953,570.164,0.0
55410.0,STARLINK-5633,PAYLOAD,2023-12-14 09:32:42,14.98330091,0.0002718,69.9998,342.4554,261.0084,99.0768,8.9427e-06,1.4e-07,0.0,0 STARLINK-5633,1 55410U 23014V   23348.39771984  .00000014  00000-0  89427-5 0  9993,2 55410  69.9998 342.4554 0002718 261.0084  99.0768 14.98330091 49294,6950.193,96.107,573.947,570.169,0.0
55410.0,STARLINK-5633,PAYLOAD,2023-12-15 04:46:19,14.98329305,0.0002743,69.9998,340.4355,260.4133,99.6716,2.471e-05,2.02e-06,0.0,0 STARLINK-5633,1 55410U 23014V   23349.19883967  .00000202  00000-0  24710-4 0  9999,2 55410  69.9998 340.4355 0002743 260.4133  99.6716 14.98329305 49416,6950.195,96.107,573.966,570.154,0.0
55410.0,STARLINK-5633,PAYLOAD,2023-12-15 09:34:43,14.98330021,0.0002736,69.9997,339.9301,261.7015,98.3834,3.2009e-05,2.89e-06,0.0,0 STARLINK-5633,1 55410U 23014V   23349.39911905  .00000289  00000-0  32009-4 0  9990,2 55410  69.9997 339.9301 0002736 261.7015  98.3834 14.98330021 49441,6950.193,96.107,573.959,570.156,0.0
55410.0,STARLINK-5633,PAYLOAD,2023-12-16 09:36:45,14.98328139,0.0002707,69.9998,337.4053,263.0618,97.0233,-1.923e-05,-3.22e-06,0.0,0 STARLINK-5633,1 55410U 23014V   23350.40052204 -.00000322  00000-0 -19230-4 0  9993,2 55410  69.9998 337.4053 0002707 263.0618  97.0233 14.98328139 49593,6950.199,96.107,573.945,570.182,0.0
